[Satellite]
VERSION=1.1
NAME=COSMOS 2432 (719)
NICKNAME=COSMOS 2432 (719)
TLE1=1 32276U 07052B   17186.16205610 -.00000052  00000-0  10000-3 0  9990
TLE2=2 32276  65.5309  65.0986 0012277 341.9871  46.4107  2.13104062 75436
